{
  "type": "FeatureCollection",
  "features": [
    {
      "type": "Feature",
      "properties": {
        "norad_id": 52912,
        "name": "GAOFEN-12 03",
        "group": "resource",
        "lat": 3.3636840781008503,
        "lon": -113.19723920387008,
        "alt_km": 632.1153948124984,
        "timestamp": "2025-12-26T05:31:12.157746+00:00",
        "meta_object_name": "GAOFEN-12 03",
        "meta_object_id": "2022-069A",
        "meta_epoch": "2025-12-25T21:23:22.979616",
        "meta_mean_motion": 14.79639456,
        "meta_eccentricity": 0.00017853,
        "meta_inclination": 97.8476,
        "meta_ra_of_asc_node": 246.9364,
        "meta_arg_of_pericenter": 47.4768,
        "meta_mean_anomaly": 312.6595,
        "meta_ephemeris_type": 0,
        "meta_classification_type": "U",
        "meta_norad_cat_id": 52912,
        "meta_element_set_no": 999,
        "meta_rev_at_epoch": 18898,
        "meta_bstar": 0.00015227419,
        "meta_mean_motion_dot": 1.091e-05,
        "meta_mean_motion_ddot": 0,
        "tle_line1": "1 52912U 22069A   25359.89123819  .00001091  00000+0  15227-3 0  9993",
        "tle_line2": "2 52912  97.8476 246.9364 0001785  47.4768 312.6595 14.79639456188982"
      },
      "geometry": {
        "type": "Point",
        "coordinates": [
          -113.19723920387008,
          3.3636840781008503
        ]
      }
    },
    {
      "type": "Feature",
      "properties": {
        "norad_id": 54754,
        "name": "SWOT",
        "group": "resource",
        "lat": 77.52732722029127,
        "lon": 5.207500162834565,
        "alt_km": 885.4681784833192,
        "timestamp": "2025-12-26T05:31:12.157756+00:00",
        "meta_object_name": "SWOT",
        "meta_object_id": "2022-173A",
        "meta_epoch": "2025-12-25T22:13:32.483424",
        "meta_mean_motion": 14.00168823,
        "meta_eccentricity": 4.229e-05,
        "meta_inclination": 77.6108,
        "meta_ra_of_asc_node": 269.1902,
        "meta_arg_of_pericenter": 81.8433,
        "meta_mean_anomaly": 278.2766,
        "meta_ephemeris_type": 0,
        "meta_classification_type": "U",
        "meta_norad_cat_id": 54754,
        "meta_element_set_no": 999,
        "meta_rev_at_epoch": 15490,
        "meta_bstar": 8.4660368e-05,
        "meta_mean_motion_dot": 1.22e-06,
        "meta_mean_motion_ddot": 0,
        "tle_line1": "1 54754U 22173A   25359.92607041  .00000122  00000+0  84660-4 0  9995",
        "tle_line2": "2 54754  77.6108 269.1902 0000422  81.8433 278.2766 14.00168823154900"
      },
      "geometry": {
        "type": "Point",
        "coordinates": [
          5.207500162834565,
          77.52732722029127
        ]
      }
    },
    {
      "type": "Feature",
      "properties": {
        "norad_id": 57654,
        "name": "GAOFEN-12 04",
        "group": "resource",
        "lat": 2.063016880375912,
        "lon": 96.07019078045197,
        "alt_km": 633.0212086817901,
        "timestamp": "2025-12-26T05:31:12.157767+00:00",
        "meta_object_name": "GAOFEN-12 04",
        "meta_object_id": "2023-123A",
        "meta_epoch": "2025-12-25T22:13:39.395424",
        "meta_mean_motion": 14.79737085,
        "meta_eccentricity": 0.00011999,
        "meta_inclination": 97.9129,
        "meta_ra_of_asc_node": 275.4839,
        "meta_arg_of_pericenter": 80.3987,
        "meta_mean_anomaly": 279.7361,
        "meta_ephemeris_type": 0,
        "meta_classification_type": "U",
        "meta_norad_cat_id": 57654,
        "meta_element_set_no": 999,
        "meta_rev_at_epoch": 12700,
        "meta_bstar": 0.00019005341,
        "meta_mean_motion_dot": 1.377e-05,
        "meta_mean_motion_ddot": 0,
        "tle_line1": "1 57654U 23123A   25359.92615041  .00001377  00000+0  19005-3 0  9995",
        "tle_line2": "2 57654  97.9129 275.4839 0001199  80.3987 279.7361 14.79737085127005"
      },
      "geometry": {
        "type": "Point",
        "coordinates": [
          96.07019078045197,
          2.063016880375912
        ]
      }
    },
    {
      "type": "Feature",
      "properties": {
        "norad_id": 59065,
        "name": "PARS 1",
        "group": "resource",
        "lat": -48.043314512029156,
        "lon": -20.160370751780587,
        "alt_km": 447.75039685752836,
        "timestamp": "2025-12-26T05:31:12.157777+00:00",
        "meta_object_name": "PARS 1",
        "meta_object_id": "2024-039Q",
        "meta_epoch": "2025-12-25T23:29:51.383616",
        "meta_mean_motion": 15.4127532,
        "meta_eccentricity": 0.00114466,
        "meta_inclination": 97.4655,
        "meta_ra_of_asc_node": 331.1961,
        "meta_arg_of_pericenter": 31.5762,
        "meta_mean_anomaly": 328.6169,
        "meta_ephemeris_type": 0,
        "meta_classification_type": "U",
        "meta_norad_cat_id": 59065,
        "meta_element_set_no": 999,
        "meta_rev_at_epoch": 10192,
        "meta_bstar": 0.00029654249,
        "meta_mean_motion_dot": 0.00012284,
        "meta_mean_motion_ddot": 0,
        "tle_line1": "1 59065U 24039Q   25359.97906694  .00012284  00000+0  29654-3 0  9992",
        "tle_line2": "2 59065  97.4655 331.1961 0011446  31.5762 328.6169 15.41275320101925"
      },
      "geometry": {
        "type": "Point",
        "coordinates": [
          -20.160370751780587,
          -48.043314512029156
        ]
      }
    },
    {
      "type": "Feature",
      "properties": {
        "norad_id": 59371,
        "name": "RESURS-P 4",
        "group": "resource",
        "lat": 17.540722986131943,
        "lon": -56.02272399883381,
        "alt_km": 469.5952657697735,
        "timestamp": "2025-12-26T05:31:12.157787+00:00",
        "meta_object_name": "RESURS-P 4",
        "meta_object_id": "2024-061A",
        "meta_epoch": "2025-12-25T23:10:24.701088",
        "meta_mean_motion": 15.32201455,
        "meta_eccentricity": 7.928e-05,
        "meta_inclination": 97.2563,
        "meta_ra_of_asc_node": 306.0263,
        "meta_arg_of_pericenter": 86.1569,
        "meta_mean_anomaly": 273.9763,
        "meta_ephemeris_type": 0,
        "meta_classification_type": "U",
        "meta_norad_cat_id": 59371,
        "meta_element_set_no": 999,
        "meta_rev_at_epoch": 9723,
        "meta_bstar": 0.0001346315,
        "meta_mean_motion_dot": 4.109e-05,
        "meta_mean_motion_ddot": 0,
        "tle_line1": "1 59371U 24061A   25359.96556367  .00004109  00000+0  13463-3 0  9992",
        "tle_line2": "2 59371  97.2563 306.0263 0000792  86.1569 273.9763 15.32201455 97238"
      },
      "geometry": {
        "type": "Point",
        "coordinates": [
          -56.02272399883381,
          17.540722986131943
        ]
      }
    },
    {
      "type": "Feature",
      "properties": {
        "norad_id": 59625,
        "name": "LEGION 1",
        "group": "resource",
        "lat": -26.71302946945981,
        "lon": -109.05817801286305,
        "alt_km": 520.2175752562016,
        "timestamp": "2025-12-26T05:31:12.157797+00:00",
        "meta_object_name": "LEGION 1",
        "meta_object_id": "2024-081A",
        "meta_epoch": "2025-12-25T22:16:35.402592",
        "meta_mean_motion": 15.16607291,
        "meta_eccentricity": 0.00036252,
        "meta_inclination": 97.5193,
        "meta_ra_of_asc_node": 74.4539,
        "meta_arg_of_pericenter": 255.7187,
        "meta_mean_anomaly": 104.3643,
        "meta_ephemeris_type": 0,
        "meta_classification_type": "U",
        "meta_norad_cat_id": 59625,
        "meta_element_set_no": 999,
        "meta_rev_at_epoch": 9127,
        "meta_bstar": 0.00024172223,
        "meta_mean_motion_dot": 4.656e-05,
        "meta_mean_motion_ddot": 0,
        "tle_line1": "1 59625U 24081A   25359.92818753  .00004656  00000+0  24172-3 0  9998",
        "tle_line2": "2 59625  97.5193  74.4539 0003625 255.7187 104.3643 15.16607291 91274"
      },
      "geometry": {
        "type": "Point",
        "coordinates": [
          -109.05817801286305,
          -26.71302946945981
        ]
      }
    },
    {
      "type": "Feature",
      "properties": {
        "norad_id": 59626,
        "name": "LEGION 2",
        "group": "resource",
        "lat": 26.937694339787416,
        "lon": 70.99241332383968,
        "alt_km": 518.621476436274,
        "timestamp": "2025-12-26T05:31:12.157808+00:00",
        "meta_object_name": "LEGION 2",
        "meta_object_id": "2024-081B",
        "meta_epoch": "2025-12-25T21:28:59.062656",
        "meta_mean_motion": 15.16620455,
        "meta_eccentricity": 0.0005827,
        "meta_inclination": 97.5196,
        "meta_ra_of_asc_node": 74.5092,
        "meta_arg_of_pericenter": 236.9667,
        "meta_mean_anomaly": 123.1006,
        "meta_ephemeris_type": 0,
        "meta_classification_type": "U",
        "meta_norad_cat_id": 59626,
        "meta_element_set_no": 999,
        "meta_rev_at_epoch": 9127,
        "meta_bstar": 0.00028927735,
        "meta_mean_motion_dot": 5.59e-05,
        "meta_mean_motion_ddot": 0,
        "tle_line1": "1 59626U 24081B   25359.89512804  .00005590  00000+0  28928-3 0  9994",
        "tle_line2": "2 59626  97.5196  74.5092 0005827 236.9667 123.1006 15.16620455 91272"
      },
      "geometry": {
        "type": "Point",
        "coordinates": [
          70.99241332383968,
          26.937694339787416
        ]
      }
    }
  ]
}